STARLINK-3102
1 19151C 21082X   21326.12622051 -.00035089  00000-0 -29402-3 0  3267
2 19151  69.9981 292.8940 0003611 287.5042  31.0244 15.69775580    15
